start=new Date('2023-04-12T00:00:00.000Z').valueOf();
sats=[{"GP_ID":"229913836","OBJECT_ID":"2021-018BL","ARG_OF_PERICENTER":"100.2871","BSTAR":"0.00114930000000","CENTER_NAME":"EARTH","EPHEMERIS_TYPE":"0","MEAN_ELEMENT_THEORY":"SGP4","NORAD_CAT_ID":"47845","REV_AT_EPOCH":"11629","MEAN_MOTION_DDOT":"0.0000000000000","APOAPSIS":"548.324","OBJECT_TYPE":"PAYLOAD","MEAN_MOTION_DOT":"0.00016864","SEMIMAJOR_AXIS":"6925.443","SITE":"AFETR","FILE":"3885783","MEAN_MOTION":"15.06369034","TLE_LINE1":"1 47845U 21018BL  23101.10827158  .00016864  00000-0  11493-2 0  9994","CLASSIFICATION_TYPE":"U","PERIOD":"95.594","DECAY_DATE":null,"LAUNCH_DATE":"2021-03-11","ECCENTRICITY":"0.00014670","PERIAPSIS":"546.293","TLE_LINE2":"2 47845  53.0556 346.2203 0001467 100.2871 259.8284 15.06369034116295","COUNTRY_CODE":"US","OBJECT_NAME":"STARLINK-2453","REF_FRAME":"TEME","RA_OF_ASC_NODE":"346.2203","TIME_SYSTEM":"UTC","MEAN_ANOMALY":"259.8284","EPOCH":"2023-04-11T02:35:54.664512","RCS_SIZE":"LARGE","INCLINATION":"53.0556","ELEMENT_SET_NO":"999"},{"TLE_LINE2":"2 47846  53.0553 342.6568 0001343 128.6024 231.5085 15.06404368116469","COUNTRY_CODE":"US","PERIAPSIS":"546.270","REF_FRAME":"TEME","OBJECT_NAME":"STARLINK-2456","EPOCH":"2023-04-11T21:35:42.562752","RA_OF_ASC_NODE":"342.6568","TIME_SYSTEM":"UTC","MEAN_ANOMALY":"231.5085","ELEMENT_SET_NO":"999","INCLINATION":"53.0553","RCS_SIZE":"LARGE","SITE":"AFETR","CLASSIFICATION_TYPE":"U","TLE_LINE1":"1 47846U 21018BM  23101.89979818  .00022359  00000-0  15150-2 0  9992","FILE":"3885919","MEAN_MOTION":"15.06404368","PERIOD":"95.592","ECCENTRICITY":"0.00013430","DECAY_DATE":null,"LAUNCH_DATE":"2021-03-11","MEAN_MOTION_DDOT":"0.0000000000000","OBJECT_TYPE":"PAYLOAD","APOAPSIS":"548.130","MEAN_MOTION_DOT":"0.00022359","SEMIMAJOR_AXIS":"6925.335","OBJECT_ID":"2021-018BM","ARG_OF_PERICENTER":"128.6024","GP_ID":"229943695","CENTER_NAME":"EARTH","BSTAR":"0.00151500000000","NORAD_CAT_ID":"47846","MEAN_ELEMENT_THEORY":"SGP4","EPHEMERIS_TYPE":"0","REV_AT_EPOCH":"11646"},{"MEAN_MOTION_DDOT":"0.0000000000000","APOAPSIS":"547.924","OBJECT_TYPE":"PAYLOAD","MEAN_MOTION_DOT":"0.00026397","SEMIMAJOR_AXIS":"6925.226","ARG_OF_PERICENTER":"76.3491","OBJECT_ID":"2021-021A","GP_ID":"229944947","CENTER_NAME":"EARTH","BSTAR":"0.00178250000000","NORAD_CAT_ID":"47860","MEAN_ELEMENT_THEORY":"SGP4","EPHEMERIS_TYPE":"0","REV_AT_EPOCH":"11576","COUNTRY_CODE":"US","TLE_LINE2":"2 47860  53.0573  12.6427 0001203  76.3491 283.7632 15.06439919115766","PERIAPSIS":"546.258","OBJECT_NAME":"STARLINK-2258","REF_FRAME":"TEME","TIME_SYSTEM":"UTC","RA_OF_ASC_NODE":"12.6427","MEAN_ANOMALY":"283.7632","EPOCH":"2023-04-11T21:43:42.823200","INCLINATION":"53.0573","ELEMENT_SET_NO":"999","RCS_SIZE":"LARGE","SITE":"AFETR","CLASSIFICATION_TYPE":"U","MEAN_MOTION":"15.06439919","FILE":"3885919","TLE_LINE1":"1 47860U 21021A   23101.90535675  .00026397  00000-0  17825-2 0  9990","PERIOD":"95.590","LAUNCH_DATE":"2021-03-14","DECAY_DATE":null,"ECCENTRICITY":"0.00012030"},{"MEAN_MOTION_DOT":"0.00029570","SEMIMAJOR_AXIS":"6925.343","MEAN_MOTION_DDOT":"0.0000000000000","APOAPSIS":"547.715","OBJECT_TYPE":"PAYLOAD","NORAD_CAT_ID":"47861","MEAN_ELEMENT_THEORY":"SGP4","EPHEMERIS_TYPE":"0","REV_AT_EPOCH":"11596","OBJECT_ID":"2021-021B","ARG_OF_PERICENTER":"76.0868","GP_ID":"229915588","CENTER_NAME":"EARTH","BSTAR":"0.00199560000000","RA_OF_ASC_NODE":"1.1373","TIME_SYSTEM":"UTC","MEAN_ANOMALY":"284.0202","EPOCH":"2023-04-11T03:03:08.274240","INCLINATION":"53.0549","ELEMENT_SET_NO":"999","RCS_SIZE":"LARGE","COUNTRY_CODE":"US","TLE_LINE2":"2 47861  53.0549   1.1373 0000733  76.0868 284.0202 15.06401976115966","PERIAPSIS":"546.700","OBJECT_NAME":"STARLINK-2280","REF_FRAME":"TEME","PERIOD":"95.592","DECAY_DATE":null,"LAUNCH_DATE":"2021-03-14","ECCENTRICITY":"0.00007330","SITE":"AFETR","CLASSIFICATION_TYPE":"U","MEAN_MOTION":"15.06401976","FILE":"3885783","TLE_LINE1":"1 47861U 21021B   23101.12717910  .00029570  00000-0  19956-2 0  9992"},{"NORAD_CAT_ID":"47862","EPHEMERIS_TYPE":"0","MEAN_ELEMENT_THEORY":"SGP4","REV_AT_EPOCH":"11602","ARG_OF_PERICENTER":"75.0866","OBJECT_ID":"2021-021C","GP_ID":"229914337","CENTER_NAME":"EARTH","BSTAR":"0.00051200000000","MEAN_MOTION_DOT":"0.00007352","SEMIMAJOR_AXIS":"6925.355","MEAN_MOTION_DDOT":"0.0000000000000","OBJECT_TYPE":"PAYLOAD","APOAPSIS":"548.088","PERIOD":"95.592","ECCENTRICITY":"0.00012520","LAUNCH_DATE":"2021-03-14","DECAY_DATE":null,"SITE":"AFETR","CLASSIFICATION_TYPE":"U","TLE_LINE1":"1 47862U 21021C   23101.10737377  .00007352  00000-0  51200-3 0  9993","MEAN_MOTION":"15.06397739","FILE":"3885783","EPOCH":"2023-04-11T02:34:37.093728","TIME_SYSTEM":"UTC","RA_OF_ASC_NODE":"356.2211","MEAN_ANOMALY":"285.0262","ELEMENT_SET_NO":"999","INCLINATION":"53.0552","RCS_SIZE":"LARGE","TLE_LINE2":"2 47862  53.0552 356.2211 0001252  75.0866 285.0262 15.06397739116026","COUNTRY_CODE":"US","PERIAPSIS":"546.353","REF_FRAME":"TEME","OBJECT_NAME":"STARLINK-2291"},{"MEAN_ELEMENT_THEORY":"SGP4","EPHEMERIS_TYPE":"0","NORAD_CAT_ID":"47863","REV_AT_EPOCH":"11598","GP_ID":"229944196","OBJECT_ID":"2021-021D","ARG_OF_PERICENTER":"81.6751","BSTAR":"0.00220290000000","CENTER_NAME":"EARTH","MEAN_MOTION_DOT":"0.00032720","SEMIMAJOR_AXIS":"6925.222","MEAN_MOTION_DDOT":"0.0000000000000","OBJECT_TYPE":"PAYLOAD","APOAPSIS":"547.689","PERIOD":"95.590","ECCENTRICITY":"0.00008690","DECAY_DATE":null,"LAUNCH_DATE":"2021-03-14","SITE":"AFETR","TLE_LINE1":"1 47863U 21021D   23101.72935764  .00032720  00000-0  22029-2 0  9995","FILE":"3885919","MEAN_MOTION":"15.06441247","CLASSIFICATION_TYPE":"U","EPOCH":"2023-04-11T17:30:16.500096","MEAN_ANOMALY":"278.4336","RA_OF_ASC_NODE":"3.4332","TIME_SYSTEM":"UTC","RCS_SIZE":"LARGE","ELEMENT_SET_NO":"999","INCLINATION":"53.0546","PERIAPSIS":"546.485","TLE_LINE2":"2 47863  53.0546   3.4332 0000869  81.6751 278.4336 15.06441247115980","COUNTRY_CODE":"US","REF_FRAME":"TEME","OBJECT_NAME":"STARLINK-2293"},{"ECCENTRICITY":"0.00010840","LAUNCH_DATE":"2021-03-14","DECAY_DATE":null,"PERIOD":"95.592","TLE_LINE1":"1 47864U 21021E   23101.11106912  .00023517  00000-0  15922-2 0  9992","FILE":"3885783","MEAN_MOTION":"15.06404268","CLASSIFICATION_TYPE":"U","SITE":"AFETR","RCS_SIZE":"LARGE","ELEMENT_SET_NO":"999","INCLINATION":"53.0547","EPOCH":"2023-04-11T02:39:56.371968","RA_OF_ASC_NODE":"356.2547","MEAN_ANOMALY":"293.3709","TIME_SYSTEM":"UTC","REF_FRAME":"TEME","OBJECT_NAME":"STARLINK-2304","PERIAPSIS":"546.450","TLE_LINE2":"2 47864  53.0547 356.2547 0001084  66.7394 293.3709 15.06404268116002","COUNTRY_CODE":"US","REV_AT_EPOCH":"11600","MEAN_ELEMENT_THEORY":"SGP4","EPHEMERIS_TYPE":"0","NORAD_CAT_ID":"47864","BSTAR":"0.00159220000000","CENTER_NAME":"EARTH","GP_ID":"229914839","ARG_OF_PERICENTER":"66.7394","OBJECT_ID":"2021-021E","SEMIMAJOR_AXIS":"6925.335","MEAN_MOTION_DOT":"0.00023517","OBJECT_TYPE":"PAYLOAD","APOAPSIS":"547.951","MEAN_MOTION_DDOT":"0.0000000000000"},{"SITE":"AFETR","CLASSIFICATION_TYPE":"U","TLE_LINE1":"1 47865U 21021F   23101.90165127  .00028161  00000-0  19001-2 0  9995","MEAN_MOTION":"15.06435651","FILE":"3885919","PERIOD":"95.590","ECCENTRICITY":"0.00003350","LAUNCH_DATE":"2021-03-14","DECAY_DATE":null,"TLE_LINE2":"2 47865  53.0539   2.6467 0000335  67.4837 292.6187 15.06435651116119","COUNTRY_CODE":"US","PERIAPSIS":"546.872","REF_FRAME":"TEME","OBJECT_NAME":"STARLINK-2310","EPOCH":"2023-04-11T21:38:22.669728","RA_OF_ASC_NODE":"2.6467","TIME_SYSTEM":"UTC","MEAN_ANOMALY":"292.6187","ELEMENT_SET_NO":"999","INCLINATION":"53.0539","RCS_SIZE":"LARGE","ARG_OF_PERICENTER":"67.4837","OBJECT_ID":"2021-021F","GP_ID":"229944682","CENTER_NAME":"EARTH","BSTAR":"0.00190010000000","NORAD_CAT_ID":"47865","MEAN_ELEMENT_THEORY":"SGP4","EPHEMERIS_TYPE":"0","REV_AT_EPOCH":"11611","MEAN_MOTION_DDOT":"0.0000000000000","OBJECT_TYPE":"PAYLOAD","APOAPSIS":"547.336","MEAN_MOTION_DOT":"0.00028161","SEMIMAJOR_AXIS":"6925.239"},{"OBJECT_TYPE":"PAYLOAD","APOAPSIS":"547.974","MEAN_MOTION_DDOT":"0.0000000000000","SEMIMAJOR_AXIS":"6925.374","MEAN_MOTION_DOT":"0.00002483","BSTAR":"0.00018558000000","CENTER_NAME":"EARTH","GP_ID":"229913838","OBJECT_ID":"2021-021G","ARG_OF_PERICENTER":"123.0986","REV_AT_EPOCH":"11605","EPHEMERIS_TYPE":"0","MEAN_ELEMENT_THEORY":"SGP4","NORAD_CAT_ID":"47866","REF_FRAME":"TEME","OBJECT_NAME":"STARLINK-2320","PERIAPSIS":"546.503","COUNTRY_CODE":"US","TLE_LINE2":"2 47866  53.0554   5.9107 0001062 123.0986 237.0105 15.06391848116051","RCS_SIZE":"LARGE","ELEMENT_SET_NO":"999","INCLINATION":"53.0554","EPOCH":"2023-04-11T04:14:07.617120","RA_OF_ASC_NODE":"5.9107","TIME_SYSTEM":"UTC","MEAN_ANOMALY":"237.0105","TLE_LINE1":"1 47866U 21021G   23101.17647705  .00002483  00000-0  18558-3 0  9998","MEAN_MOTION":"15.06391848","FILE":"3885783","CLASSIFICATION_TYPE":"U","SITE":"AFETR","ECCENTRICITY":"0.00010620","LAUNCH_DATE":"2021-03-14","DECAY_DATE":null,"PERIOD":"95.593"},{"ELEMENT_SET_NO":"999","INCLINATION":"53.0555","RCS_SIZE":"LARGE","EPOCH":"2023-04-11T21:35:44.978496","MEAN_ANOMALY":"256.1981","TIME_SYSTEM":"UTC","RA_OF_ASC_NODE":"352.6657","REF_FRAME":"TEME","OBJECT_NAME":"STARLINK-2321","TLE_LINE2":"2 47867  53.0555 352.6657 0000910 103.9109 256.1981 15.06441732116108","COUNTRY_CODE":"US","PERIAPSIS":"546.455","ECCENTRICITY":"0.00009100","DECAY_DATE":null,"LAUNCH_DATE":"2021-03-14","PERIOD":"95.589","CLASSIFICATION_TYPE":"U","TLE_LINE1":"1 47867U 21021H   23101.89982614  .00022708  00000-0  15367-2 0  9995","MEAN_MOTION":"15.06441732","FILE":"3885919","SITE":"AFETR","SEMIMAJOR_AXIS":"6925.221","MEAN_MOTION_DOT":"0.00022708","OBJECT_TYPE":"PAYLOAD","APOAPSIS":"547.716","MEAN_MOTION_DDOT":"0.0000000000000","REV_AT_EPOCH":"11610","NORAD_CAT_ID":"47867","MEAN_ELEMENT_THEORY":"SGP4","EPHEMERIS_TYPE":"0","CENTER_NAME":"EARTH","BSTAR":"0.00153670000000","OBJECT_ID":"2021-021H","ARG_OF_PERICENTER":"103.9109","GP_ID":"229943697"}];
